{
    "links": {
        "self": "http://www.neowsapp.com/rest/v1/neo/3787632?api_key=iIulBulltgU6a56xZRHN4H3l9WmuAYTsLGpBGhQ2"
    },
    "id": "3787632",
    "neo_reference_id": "3787632",
    "name": "(2017 UC3)",
    "designation": "2017 UC3",
    "nasa_jpl_url": "http://ssd.jpl.nasa.gov/sbdb.cgi?sstr=3787632",
    "absolute_magnitude_h": 22.7,
    "estimated_diameter": {
        "kilometers": {
            "estimated_diameter_min": 0.0766575574,
            "estimated_diameter_max": 0.1714115092
        },
        "meters": {
            "estimated_diameter_min": 76.6575573531,
            "estimated_diameter_max": 171.4115092306
        },
        "miles": {
            "estimated_diameter_min": 0.0476327831,
            "estimated_diameter_max": 0.1065101409
        },
        "feet": {
            "estimated_diameter_min": 251.5011804664,
            "estimated_diameter_max": 562.3737359442
        }
    },
    "is_potentially_hazardous_asteroid": false,
    "close_approach_data": [
        {
            "close_approach_date": "2017-10-22",
            "close_approach_date_full": "2017-Oct-22 17:51",
            "epoch_date_close_approach": 1508694660000,
            "relative_velocity": {
                "kilometers_per_second": "31.1049366384",
                "kilometers_per_hour": "111977.7718983192",
                "miles_per_hour": "69578.6327664862"
            },
            "miss_distance": {
                "astronomical": "0.0411548439",
                "lunar": "16.0092342771",
                "kilometers": "6156676.987622493",
                "miles": "3825581.6855286834"
            },
            "orbiting_body": "Earth"
        }
    ],
    "orbital_data": {
        "orbit_id": "3",
        "orbit_determination_date": "2019-12-21 06:03:18",
        "first_observation_date": "2017-10-19",
        "last_observation_date": "2017-10-23",
        "data_arc_in_days": 4,
        "observations_used": 29,
        "orbit_uncertainty": "9",
        "minimum_orbit_intersection": ".0314561",
        "jupiter_tisserand_invariant": "3.783",
        "epoch_osculation": "2458047.5",
        "eccentricity": ".6748004759696181",
        "semi_major_axis": "1.619903805352508",
        "inclination": "46.13479059162245",
        "ascending_node_longitude": "209.0862592020718",
        "orbital_period": "753.0646563681732",
        "perihelion_distance": ".5267919464756401",
        "perihelion_argument": "283.0853198938991",
        "aphelion_distance": "2.713015664229377",
        "perihelion_time": "2458099.387789728363",
        "mean_anomaly": "335.1952184394135",
        "mean_motion": ".4780466019162052",
        "equinox": "J2000",
        "orbit_class": {
            "orbit_class_type": "APO",
            "orbit_class_description": "Near-Earth asteroid orbits which cross the Earth’s orbit similar to that of 1862 Apollo",
            "orbit_class_range": "a (semi-major axis) > 1.0 AU; q (perihelion) < 1.017 AU"
        }
    },
    "is_sentry_object": false
}